[{"OBJECT_NAME":"STARLINK-4459","OBJECT_ID":"2022-105Y","EPOCH":"2026-03-09T16:23:57.437088","MEAN_MOTION":15.05648919,"ECCENTRICITY":0.00023334,"INCLINATION":97.6028,"RA_OF_ASC_NODE":311.2495,"ARG_OF_PERICENTER":79.6018,"MEAN_ANOMALY":280.5472,"EPHEMERIS_TYPE":0,"CLASSIFICATION_TYPE":"U","NORAD_CAT_ID":53670,"ELEMENT_SET_NO":999,"REV_AT_EPOCH":19330,"BSTAR":5.6703135e-5,"MEAN_MOTION_DOT":7.57e-6,"MEAN_MOTION_DDOT":0},{"OBJECT_NAME":"IMS-1","OBJECT_ID":"2008-021D","EPOCH":"2026-03-09T22:27:26.707392","MEAN_MOTION":15.03517095,"ECCENTRICITY":0.00068607,"INCLINATION":97.9418,"RA_OF_ASC_NODE":52.6663,"ARG_OF_PERICENTER":75.5168,"MEAN_ANOMALY":284.6817,"EPHEMERIS_TYPE":0,"CLASSIFICATION_TYPE":"U","NORAD_CAT_ID":32786,"ELEMENT_SET_NO":999,"REV_AT_EPOCH":96828,"BSTAR":0.00046947389,"MEAN_MOTION_DOT":6.344e-5,"MEAN_MOTION_DDOT":0}]
